CCSDS_OMM_VERS = 2.0
CREATION_DATE  = 
ORIGINATOR     = 

OBJECT_NAME    = STARLINK-36726
OBJECT_ID      = 2026-036X
CENTER_NAME    = EARTH
REF_FRAME      = TEME
TIME_SYSTEM    = UTC
MEAN_ELEMENT_THEORY = SGP/SGP4

EPOCH          = 2026-03-08T13:25:59.545344
MEAN_MOTION    = 15.82131814
ECCENTRICITY   = .0001842
INCLINATION    = 42.9983
RA_OF_ASC_NODE = 256.5085
ARG_OF_PERICENTER = 245.9931
MEAN_ANOMALY   = 114.0748

EPHEMERIS_TYPE = 0
CLASSIFICATION_TYPE = U
NORAD_CAT_ID   = 67925
ELEMENT_SET_NO = 999
REV_AT_EPOCH   = 349
BSTAR          = .13041E-2
MEAN_MOTION_DOT = .284825E-2
MEAN_MOTION_DDOT = 0

CCSDS_OMM_VERS = 2.0
CREATION_DATE  = 
ORIGINATOR     = 

OBJECT_NAME    = STARLINK-36758
OBJECT_ID      = 2026-036Y
CENTER_NAME    = EARTH
REF_FRAME      = TEME
TIME_SYSTEM    = UTC
MEAN_ELEMENT_THEORY = SGP/SGP4

EPOCH          = 2026-03-08T13:24:54.929376
MEAN_MOTION    = 15.82058950
ECCENTRICITY   = .0001963
INCLINATION    = 42.9987
RA_OF_ASC_NODE = 256.5014
ARG_OF_PERICENTER = 233.9897
MEAN_ANOMALY   = 126.0793

EPHEMERIS_TYPE = 0
CLASSIFICATION_TYPE = U
NORAD_CAT_ID   = 67926
ELEMENT_SET_NO = 999
REV_AT_EPOCH   = 349
BSTAR          = .14052E-2
MEAN_MOTION_DOT = .306701E-2
MEAN_MOTION_DDOT = 0

CCSDS_OMM_VERS = 2.0
CREATION_DATE  = 
ORIGINATOR     = 

OBJECT_NAME    = STARLINK-36728
OBJECT_ID      = 2026-036Z
CENTER_NAME    = EARTH
REF_FRAME      = TEME
TIME_SYSTEM    = UTC
MEAN_ELEMENT_THEORY = SGP/SGP4

EPOCH          = 2026-03-08T13:22:43.709376
MEAN_MOTION    = 15.82213901
ECCENTRICITY   = .0001911
INCLINATION    = 42.9987
RA_OF_ASC_NODE = 256.4889
ARG_OF_PERICENTER = 264.6537
MEAN_ANOMALY   = 95.4117

EPHEMERIS_TYPE = 0
CLASSIFICATION_TYPE = U
NORAD_CAT_ID   = 67927
ELEMENT_SET_NO = 999
REV_AT_EPOCH   = 349
BSTAR          = .18316E-2
MEAN_MOTION_DOT = .407604E-2
MEAN_MOTION_DDOT = 0

CCSDS_OMM_VERS = 2.0
CREATION_DATE  = 
ORIGINATOR     = 

OBJECT_NAME    = STARLINK-36771
OBJECT_ID      = 2026-036AA
CENTER_NAME    = EARTH
REF_FRAME      = TEME
TIME_SYSTEM    = UTC
MEAN_ELEMENT_THEORY = SGP/SGP4

EPOCH          = 2026-03-08T13:23:50.367840
MEAN_MOTION    = 15.82085380
ECCENTRICITY   = .0001922
INCLINATION    = 42.9989
RA_OF_ASC_NODE = 256.4950
ARG_OF_PERICENTER = 291.2908
MEAN_ANOMALY   = 68.7758

EPHEMERIS_TYPE = 0
CLASSIFICATION_TYPE = U
NORAD_CAT_ID   = 67928
ELEMENT_SET_NO = 999
REV_AT_EPOCH   = 349
BSTAR          = .17527E-2
MEAN_MOTION_DOT = .386751E-2
MEAN_MOTION_DDOT = 0

CCSDS_OMM_VERS = 2.0
CREATION_DATE  = 
ORIGINATOR     = 

OBJECT_NAME    = STARLINK-36809
OBJECT_ID      = 2026-036AB
CENTER_NAME    = EARTH
REF_FRAME      = TEME
TIME_SYSTEM    = UTC
MEAN_ELEMENT_THEORY = SGP/SGP4

EPOCH          = 2026-03-08T13:21:40.874976
MEAN_MOTION    = 15.82083061
ECCENTRICITY   = .0001921
INCLINATION    = 42.9988
RA_OF_ASC_NODE = 256.4825
ARG_OF_PERICENTER = 280.6471
MEAN_ANOMALY   = 79.4184

EPHEMERIS_TYPE = 0
CLASSIFICATION_TYPE = U
NORAD_CAT_ID   = 67929
ELEMENT_SET_NO = 999
REV_AT_EPOCH   = 349
BSTAR          = .17335E-2
MEAN_MOTION_DOT = .382265E-2
MEAN_MOTION_DDOT = 0

CCSDS_OMM_VERS = 2.0
CREATION_DATE  = 
ORIGINATOR     = 

OBJECT_NAME    = STARLINK-36865
OBJECT_ID      = 2026-036AC
CENTER_NAME    = EARTH
REF_FRAME      = TEME
TIME_SYSTEM    = UTC
MEAN_ELEMENT_THEORY = SGP/SGP4

EPOCH          = 2026-03-08T13:19:31.440864
MEAN_MOTION    = 15.82067693
ECCENTRICITY   = .0001857
INCLINATION    = 42.9989
RA_OF_ASC_NODE = 256.4698
ARG_OF_PERICENTER = 289.0675
MEAN_ANOMALY   = 70.9995

EPHEMERIS_TYPE = 0
CLASSIFICATION_TYPE = U
NORAD_CAT_ID   = 67930
ELEMENT_SET_NO = 999
REV_AT_EPOCH   = 349
BSTAR          = .13962E-2
MEAN_MOTION_DOT = .304771E-2
MEAN_MOTION_DDOT = 0

CCSDS_OMM_VERS = 2.0
CREATION_DATE  = 
ORIGINATOR     = 

OBJECT_NAME    = STARLINK-36781
OBJECT_ID      = 2026-036AD
CENTER_NAME    = EARTH
REF_FRAME      = TEME
TIME_SYSTEM    = UTC
MEAN_ELEMENT_THEORY = SGP/SGP4

EPOCH          = 2026-03-08T13:20:34.355616
MEAN_MOTION    = 15.82228460
ECCENTRICITY   = .0001708
INCLINATION    = 42.9989
RA_OF_ASC_NODE = 256.4762
ARG_OF_PERICENTER = 281.4035
MEAN_ANOMALY   = 78.6645

EPHEMERIS_TYPE = 0
CLASSIFICATION_TYPE = U
NORAD_CAT_ID   = 67931
ELEMENT_SET_NO = 999
REV_AT_EPOCH   = 349
BSTAR          = .21582E-2
MEAN_MOTION_DOT = .485101E-2
MEAN_MOTION_DDOT = 0

CCSDS_OMM_VERS = 2.0
CREATION_DATE  = 
ORIGINATOR     = 

OBJECT_NAME    = STARLINK-36301
OBJECT_ID      = 2026-037A
CENTER_NAME    = EARTH
REF_FRAME      = TEME
TIME_SYSTEM    = UTC
MEAN_ELEMENT_THEORY = SGP/SGP4

EPOCH          = 2026-03-08T12:00:01.999296
MEAN_MOTION    = 15.82647088
ECCENTRICITY   = .000098
INCLINATION    = 42.9993
RA_OF_ASC_NODE = 205.8711
ARG_OF_PERICENTER = 268.7649
MEAN_ANOMALY   = 58.7101

EPHEMERIS_TYPE = 0
CLASSIFICATION_TYPE = U
NORAD_CAT_ID   = 67932
ELEMENT_SET_NO = 999
REV_AT_EPOCH   = 291
BSTAR          = -.44344E-2
MEAN_MOTION_DOT = -.870925E-2
MEAN_MOTION_DDOT = 0

CCSDS_OMM_VERS = 2.0
CREATION_DATE  = 
ORIGINATOR     = 

OBJECT_NAME    = STARLINK-36852
OBJECT_ID      = 2026-037B
CENTER_NAME    = EARTH
REF_FRAME      = TEME
TIME_SYSTEM    = UTC
MEAN_ELEMENT_THEORY = SGP/SGP4

EPOCH          = 2026-03-08T12:00:01.999296
MEAN_MOTION    = 15.82954143
ECCENTRICITY   = .000132
INCLINATION    = 42.9994
RA_OF_ASC_NODE = 205.8609
ARG_OF_PERICENTER = 264.1012
MEAN_ANOMALY   = 67.4244

EPHEMERIS_TYPE = 0
CLASSIFICATION_TYPE = U
NORAD_CAT_ID   = 67933
ELEMENT_SET_NO = 999
REV_AT_EPOCH   = 300
BSTAR          = -.61467E-2
MEAN_MOTION_DOT = -.1203148E-1
MEAN_MOTION_DDOT = 0

CCSDS_OMM_VERS = 2.0
CREATION_DATE  = 
ORIGINATOR     = 

OBJECT_NAME    = STARLINK-36861
OBJECT_ID      = 2026-037C
CENTER_NAME    = EARTH
REF_FRAME      = TEME
TIME_SYSTEM    = UTC
MEAN_ELEMENT_THEORY = SGP/SGP4

EPOCH          = 2026-03-08T12:00:01.999296
MEAN_MOTION    = 15.83089213
ECCENTRICITY   = .0001216
INCLINATION    = 42.9993
RA_OF_ASC_NODE = 205.8506
ARG_OF_PERICENTER = 269.6954
MEAN_ANOMALY   = 65.9707

EPHEMERIS_TYPE = 0
CLASSIFICATION_TYPE = U
NORAD_CAT_ID   = 67934
ELEMENT_SET_NO = 999
REV_AT_EPOCH   = 300
BSTAR          = -.66067E-2
MEAN_MOTION_DOT = -.1289757E-1
MEAN_MOTION_DDOT = 0

CCSDS_OMM_VERS = 2.0
CREATION_DATE  = 
ORIGINATOR     = 

OBJECT_NAME    = STARLINK-36860
OBJECT_ID      = 2026-037D
CENTER_NAME    = EARTH
REF_FRAME      = TEME
TIME_SYSTEM    = UTC
MEAN_ELEMENT_THEORY = SGP/SGP4

EPOCH          = 2026-03-08T12:00:01.999296
MEAN_MOTION    = 15.83212500
ECCENTRICITY   = .0001545
INCLINATION    = 42.9993
RA_OF_ASC_NODE = 205.8404
ARG_OF_PERICENTER = 265.9247
MEAN_ANOMALY   = 73.8904

EPHEMERIS_TYPE = 0
CLASSIFICATION_TYPE = U
NORAD_CAT_ID   = 67935
ELEMENT_SET_NO = 999
REV_AT_EPOCH   = 300
BSTAR          = -.70328E-2
MEAN_MOTION_DOT = -.1369588E-1
MEAN_MOTION_DDOT = 0

CCSDS_OMM_VERS = 2.0
CREATION_DATE  = 
ORIGINATOR     = 

OBJECT_NAME    = STARLINK-36848
OBJECT_ID      = 2026-037E
CENTER_NAME    = EARTH
REF_FRAME      = TEME
TIME_SYSTEM    = UTC
MEAN_ELEMENT_THEORY = SGP/SGP4

EPOCH          = 2026-03-08T12:00:01.999296
MEAN_MOTION    = 15.83467434
ECCENTRICITY   = .0001712
INCLINATION    = 42.9993
RA_OF_ASC_NODE = 205.8188
ARG_OF_PERICENTER = 265.9381
MEAN_ANOMALY   = 82.1028

EPHEMERIS_TYPE = 0
CLASSIFICATION_TYPE = U
NORAD_CAT_ID   = 67936
ELEMENT_SET_NO = 999
REV_AT_EPOCH   = 300
BSTAR          = -.75254E-2
MEAN_MOTION_DOT = -.1498883E-1
MEAN_MOTION_DDOT = 0

